0 THORAD DELTA 1 DEB
1 08161U 74089AB  13281.75161664  .00000519  00000-0  57585-2 0  6775
2 08161 101.2381 200.6757 0372922 122.6539 310.4395 11.97725554697366
0 THORAD DELTA 1 DEB
1 08161U 74089AB  13283.00289707  .00000601  00000-0  66103-2 0  6783
2 08161 101.2398 201.7433 0373104 120.4254 305.7348 11.97725860697512
0 THORAD DELTA 1 DEB
1 08161U 74089AB  13285.35381752  .00000735  00000-0  80088-2 0  6793
2 08161 101.2388 203.7516 0373586 116.2242 002.5083 11.97727937697794
0 THORAD DELTA 1 DEB
1 08161U 74089AB  13286.35628958  .00000815  00000-0  88352-2 0  6809
2 08161 101.2382 204.6089 0373742 114.4386 004.9999 11.97728919697913
0 THORAD DELTA 1 DEB
1 08161U 74089AB  13287.68072506  .00000912  00000-0  98479-2 0  6818
2 08161 101.2383 205.7404 0373940 112.0769 315.7491 11.97730317698079
0 THORAD DELTA 1 DEB
1 08161U 74089AB  13289.68499927  .00001045  00000-0  11221-1 0  6828
2 08161 101.2387 207.4523 0374318 108.4908 317.8842 11.97734582698316
0 THORAD DELTA 1 DEB
1 08161U 74089AB  13290.77178461  .00001062  00000-0  11399-1 0  6833
2 08161 101.2388 208.3808 0374537 106.5496 323.9480 11.97736503698442
0 THORAD DELTA 1 DEB
1 08161U 74089AB  13292.28752662  .00001070  00000-0  11477-1 0  6849
2 08161 101.2388 209.6757 0374813 103.8456 019.6201 11.97739584698624
0 THORAD DELTA 1 DEB
1 08161U 74089AB  13293.37162402  .00001103  00000-0  11818-1 0  6854
2 08161 101.2389 210.6020 0375033 101.9114 014.1116 11.97742632698752
0 THORAD DELTA 1 DEB
1 08161U 74089AB  13294.37506784  .00001073  00000-0  11503-1 0  6868
2 08161 101.2391 211.4593 0375145 100.1246 020.8395 11.97745172698878
0 THORAD DELTA 1 DEB
1 08161U 74089AB  13295.37714896  .00001002  00000-0  10764-1 0  6875
2 08161 101.2390 212.3154 0375391 098.3403 021.6968 11.97746708698990
